{
  "type": "FeatureCollection",
  "features": [
    {
      "type": "Feature",
      "properties": {
        "norad_id": 33376,
        "name": "GALAXY 19 (G-19)",
        "group": "intelsat",
        "lat": 0.02577536750481968,
        "lon": -9.590786786994146,
        "alt_km": 35781.59889605629,
        "timestamp": "2025-12-26T23:26:41.820921+00:00",
        "meta_object_name": "GALAXY 19 (G-19)",
        "meta_object_id": "2008-045A",
        "meta_epoch": "2025-12-26T11:24:38.058336",
        "meta_mean_motion": 1.00271648,
        "meta_eccentricity": 0.0002814,
        "meta_inclination": 0.0383,
        "meta_ra_of_asc_node": 264.7732,
        "meta_arg_of_pericenter": 18.0555,
        "meta_mean_anomaly": 246.5482,
        "meta_ephemeris_type": 0,
        "meta_classification_type": "U",
        "meta_norad_cat_id": 33376,
        "meta_element_set_no": 999,
        "meta_rev_at_epoch": 6317,
        "meta_bstar": 0,
        "meta_mean_motion_dot": -1.17e-06,
        "meta_mean_motion_ddot": 0,
        "tle_line1": "1 33376U 08045A   25360.47544049 -.00000117  00000+0  00000+0 0  9990",
        "tle_line2": "2 33376   0.0383 264.7732 0002814  18.0555 246.5482  1.00271648 63175"
      },
      "geometry": {
        "type": "Point",
        "coordinates": [
          -9.590786786994146,
          0.02577536750481968
        ]
      }
    },
    {
      "type": "Feature",
      "properties": {
        "norad_id": 35493,
        "name": "FM-5",
        "group": "intelsat",
        "lat": 0.009239300359264853,
        "lon": 1.2166288563961543,
        "alt_km": 35789.92486559909,
        "timestamp": "2025-12-26T23:26:41.820932+00:00",
        "meta_object_name": "FM-5",
        "meta_object_id": "2009-034A",
        "meta_epoch": "2025-12-25T21:13:02.840160",
        "meta_mean_motion": 1.00269478,
        "meta_eccentricity": 7.9e-05,
        "meta_inclination": 0.0148,
        "meta_ra_of_asc_node": 303.8545,
        "meta_arg_of_pericenter": 217.7513,
        "meta_mean_anomaly": 165.1409,
        "meta_ephemeris_type": 0,
        "meta_classification_type": "U",
        "meta_norad_cat_id": 35493,
        "meta_element_set_no": 999,
        "meta_rev_at_epoch": 4490,
        "meta_bstar": 0,
        "meta_mean_motion_dot": -1.78e-06,
        "meta_mean_motion_ddot": 0,
        "tle_line1": "1 35493U 09034A   25359.88406065 -.00000178  00000+0  00000+0 0  9996",
        "tle_line2": "2 35493   0.0148 303.8545 0000790 217.7513 165.1409  1.00269478 44909"
      },
      "geometry": {
        "type": "Point",
        "coordinates": [
          1.2166288563961543,
          0.009239300359264853
        ]
      }
    },
    {
      "type": "Feature",
      "properties": {
        "norad_id": 36097,
        "name": "INTELSAT 14 (IS-14)",
        "group": "intelsat",
        "lat": 0.007540623966710052,
        "lon": 42.407756518150705,
        "alt_km": 35791.75282549562,
        "timestamp": "2025-12-26T23:26:41.820943+00:00",
        "meta_object_name": "INTELSAT 14 (IS-14)",
        "meta_object_id": "2009-064A",
        "meta_epoch": "2025-12-26T11:06:19.224000",
        "meta_mean_motion": 1.00271706,
        "meta_eccentricity": 0.0002645,
        "meta_inclination": 0.0128,
        "meta_ra_of_asc_node": 39.804,
        "meta_arg_of_pericenter": 242.6643,
        "meta_mean_anomaly": 294.3197,
        "meta_ephemeris_type": 0,
        "meta_classification_type": "U",
        "meta_norad_cat_id": 36097,
        "meta_element_set_no": 999,
        "meta_rev_at_epoch": 5887,
        "meta_bstar": 0,
        "meta_mean_motion_dot": -2.51e-06,
        "meta_mean_motion_ddot": 0,
        "tle_line1": "1 36097U 09064A   25360.46272250 -.00000251  00000+0  00000+0 0  9995",
        "tle_line2": "2 36097   0.0128  39.8040 0002645 242.6643 294.3197  1.00271706 58873"
      },
      "geometry": {
        "type": "Point",
        "coordinates": [
          42.407756518150705,
          0.007540623966710052
        ]
      }
    },
    {
      "type": "Feature",
      "properties": {
        "norad_id": 36106,
        "name": "INTELSAT 15 (IS-15)",
        "group": "intelsat",
        "lat": 0.02178653255818645,
        "lon": 172.50340501763378,
        "alt_km": 35791.06174804087,
        "timestamp": "2025-12-26T23:26:41.820954+00:00",
        "meta_object_name": "INTELSAT 15 (IS-15)",
        "meta_object_id": "2009-067A",
        "meta_epoch": "2025-12-26T18:35:08.611872",
        "meta_mean_motion": 1.00269968,
        "meta_eccentricity": 0.0002463,
        "meta_inclination": 0.0172,
        "meta_ra_of_asc_node": 56.5413,
        "meta_arg_of_pericenter": 231.3991,
        "meta_mean_anomaly": 171.5093,
        "meta_ephemeris_type": 0,
        "meta_classification_type": "U",
        "meta_norad_cat_id": 36106,
        "meta_element_set_no": 999,
        "meta_rev_at_epoch": 3950,
        "meta_bstar": 0,
        "meta_mean_motion_dot": -1.63e-06,
        "meta_mean_motion_ddot": 0,
        "tle_line1": "1 36106U 09067A   25360.77440523 -.00000163  00000+0  00000+0 0  9995",
        "tle_line2": "2 36106   0.0172  56.5413 0002463 231.3991 171.5093  1.00269968 39509"
      },
      "geometry": {
        "type": "Point",
        "coordinates": [
          172.50340501763378,
          0.02178653255818645
        ]
      }
    },
    {
      "type": "Feature",
      "properties": {
        "norad_id": 36131,
        "name": "DIRECTV 12",
        "group": "intelsat",
        "lat": -0.018753464375172873,
        "lon": -15.317830744527752,
        "alt_km": 35783.75593112314,
        "timestamp": "2025-12-26T23:26:41.820964+00:00",
        "meta_object_name": "DIRECTV 12",
        "meta_object_id": "2009-075A",
        "meta_epoch": "2025-12-25T14:17:27.635136",
        "meta_mean_motion": 1.00273448,
        "meta_eccentricity": 5.26e-05,
        "meta_inclination": 0.0362,
        "meta_ra_of_asc_node": 165.2057,
        "meta_arg_of_pericenter": 147.3669,
        "meta_mean_anomaly": 253.4343,
        "meta_ephemeris_type": 0,
        "meta_classification_type": "U",
        "meta_norad_cat_id": 36131,
        "meta_element_set_no": 999,
        "meta_rev_at_epoch": 4481,
        "meta_bstar": 0,
        "meta_mean_motion_dot": -8.2e-07,
        "meta_mean_motion_ddot": 0,
        "tle_line1": "1 36131U 09075A   25359.59545874 -.00000082  00000+0  00000+0 0  9995",
        "tle_line2": "2 36131   0.0362 165.2057 0000526 147.3669 253.4343  1.00273448 44812"
      },
      "geometry": {
        "type": "Point",
        "coordinates": [
          -15.317830744527752,
          -0.018753464375172873
        ]
      }
    },
    {
      "type": "Feature",
      "properties": {
        "norad_id": 36397,
        "name": "INTELSAT 16 (IS-16)",
        "group": "intelsat",
        "lat": 0.0015007234738336904,
        "lon": 11.221600554477556,
        "alt_km": 35787.3899684863,
        "timestamp": "2025-12-26T23:26:41.820975+00:00",
        "meta_object_name": "INTELSAT 16 (IS-16)",
        "meta_object_id": "2010-006A",
        "meta_epoch": "2025-12-26T12:40:10.236000",
        "meta_mean_motion": 1.00271686,
        "meta_eccentricity": 0.0002026,
        "meta_inclination": 0.0098,
        "meta_ra_of_asc_node": 8.0351,
        "meta_arg_of_pericenter": 264.8493,
        "meta_mean_anomaly": 296.2475,
        "meta_ephemeris_type": 0,
        "meta_classification_type": "U",
        "meta_norad_cat_id": 36397,
        "meta_element_set_no": 999,
        "meta_rev_at_epoch": 5792,
        "meta_bstar": 0,
        "meta_mean_motion_dot": -2.23e-06,
        "meta_mean_motion_ddot": 0,
        "tle_line1": "1 36397U 10006A   25360.52789625 -.00000223  00000+0  00000+0 0  9991",
        "tle_line2": "2 36397   0.0098   8.0351 0002026 264.8493 296.2475  1.00271686 57929"
      },
      "geometry": {
        "type": "Point",
        "coordinates": [
          11.221600554477556,
          0.0015007234738336904
        ]
      }
    },
    {
      "type": "Feature",
      "properties": {
        "norad_id": 37185,
        "name": "XM-5",
        "group": "intelsat",
        "lat": 0.041574849476844436,
        "lon": -27.811426083741082,
        "alt_km": 35794.52914401875,
        "timestamp": "2025-12-26T23:26:41.820986+00:00",
        "meta_object_name": "XM-5",
        "meta_object_id": "2010-053A",
        "meta_epoch": "2025-12-26T06:45:38.542176",
        "meta_mean_motion": 1.00272159,
        "meta_eccentricity": 0.0002039,
        "meta_inclination": 0.0641,
        "meta_ra_of_asc_node": 269.394,
        "meta_arg_of_pericenter": 243.8981,
        "meta_mean_anomaly": 287.9534,
        "meta_ephemeris_type": 0,
        "meta_classification_type": "U",
        "meta_norad_cat_id": 37185,
        "meta_element_set_no": 999,
        "meta_rev_at_epoch": 5575,
        "meta_bstar": 0,
        "meta_mean_motion_dot": -1e-08,
        "meta_mean_motion_ddot": 0,
        "tle_line1": "1 37185U 10053A   25360.28169609 -.00000001  00000+0  00000+0 0  9990",
        "tle_line2": "2 37185   0.0641 269.3940 0002039 243.8981 287.9534  1.00272159 55756"
      },
      "geometry": {
        "type": "Point",
        "coordinates": [
          -27.811426083741082,
          0.041574849476844436
        ]
      }
    }
  ]
}